{
"type": "FeatureCollection",
"name": "AM",
"crs": { "type": "name", "properties": { "name": "urn:ogc:def:crs:OGC:1.3:CRS84" } },
"features": [
{ "type": "Feature", "properties": { "GID_2": "BRA.4.50_2", "NAME_2": "Santa Isabel do Rio Negro", "ENGTYPE_2": "Municipality", "CC_2": "1303601", "region_ID": 2002190, "Rank_Category": 2, "UF": "AM" }, "geometry": { "type": "MultiLineString", "coordinates": [ [ [ -66.31845204890368, 0.75502955902351 ], [ -66.213027953999983, 0.780620993000127 ] ], [ [ -66.213027953999983, 0.780620993000127 ], [ -66.207756041999971, 0.780200005000154 ] ], [ [ -66.207756041999971, 0.780200005000154 ], [ -66.188201904999971, 0.778652014000045 ] ], [ [ -66.188201904999971, 0.778652014000045 ], [ -66.182731628999989, 0.767091991000029 ] ], [ [ -66.182731628999989, 0.767091991000029 ], [ -66.176602394764828, 0.763609128707633 ] ], [ [ -66.168771679881829, 0.759159420615341 ], [ -66.168771669999899, 0.759159415000056 ] ], [ [ -66.168771669999899, 0.759159415000056 ], [ -66.163368223999839, 0.756088973000033 ] ], [ [ -66.163368223999839, 0.756088973000033 ], [ -66.161148071999889, 0.746329009000021 ] ], [ [ -66.161148071999889, 0.746329009000021 ], [ -66.151138305999837, 0.744445026 ] ], [ [ -66.151138305999837, 0.744445026 ], [ -66.137099332678517, 0.748011285827616 ] ], [ [ -66.121289447579684, 0.752027402090713 ], [ -66.121289443999956, 0.752027403000056 ] ], [ [ -66.121289443999956, 0.752027403000056 ], [ -66.121200560999966, 0.752049982000074 ] ], [ [ -66.121200560999966, 0.752049982000074 ], [ -66.121192414999939, 0.752063849000081 ] ], [ [ -66.121192414999939, 0.752063849000081 ], [ -66.121192414645762, 0.752063849603046 ] ], [ [ -66.114519686667109, 0.763351317010217 ], [ -66.102272033999952, 0.763720990000081 ] ], [ [ -66.102272033999952, 0.763720990000081 ], [ -66.088577269999973, 0.759030997000082 ] ], [ [ -66.088577269999973, 0.759030997000082 ], [ -66.088535527299044, 0.759062461774715 ] ], [ [ -66.070078979575129, 0.805025372913155 ], [ -66.057075500999986, 0.80236601900009 ] ], [ [ -66.057075500999986, 0.80236601900009 ], [ -66.056886700999883, 0.802363325000044 ] ], [ [ -66.056886700999883, 0.802363325000044 ], [ -66.056886699020779, 0.802363324971809 ] ], [ [ -66.052569362314344, 0.804044757924169 ], [ -66.03802490299995, 0.812008978000108 ] ], [ [ -66.03802490299995, 0.812008978000108 ], [ -66.01730346699992, 0.800011993000169 ] ], [ [ -66.01730346699992, 0.800011993000169 ], [ -66.0006561269999, 0.802550971000073 ] ], [ [ -66.0006561269999, 0.802550971000073 ], [ -65.997104970530486, 0.804638481215102 ] ], [ [ -65.993098145764378, 0.806990573138719 ], [ -65.983383179999976, 0.806178985999964 ] ], [ [ -65.983383179999976, 0.806178985999964 ], [ -65.983355048999954, 0.806207374000053 ] ], [ [ -65.983355048999954, 0.806207374000053 ], [ -65.983355048700162, 0.806207374302593 ] ], [ [ -65.977819931753416, 0.81177588177819 ], [ -65.971412658999952, 0.80600601500015 ] ], [ [ -65.971412658999952, 0.80600601500015 ], [ -65.964470002999974, 0.80945348 ] ], [ [ -65.964470002999974, 0.80945348 ], [ -65.964470003002063, 0.809453480078475 ] ], [ [ -65.962949544227456, 0.822056704101668 ], [ -65.962949527999967, 0.822056725000039 ] ], [ [ -65.962949527999967, 0.822056725000039 ], [ -65.95307305599988, 0.834776017000081 ] ], [ [ -65.95307305599988, 0.834776017000081 ], [ -65.953073052422369, 0.834776021607343 ] ], [ [ -65.933431054717332, 0.862864116295547 ], [ -65.933431054999971, 0.862864118 ] ], [ [ -65.933431054999971, 0.862864118 ], [ -65.936555649530462, 0.881707149168907 ] ], [ [ -65.925421763265959, 0.891248794001104 ], [ -65.925131720999957, 0.89120732900011 ] ], [ [ -65.925131720999957, 0.89120732900011 ], [ -65.925131718961467, 0.891207328708685 ] ], [ [ -65.90871221758465, 0.888859973369539 ], [ -65.908712214999923, 0.888859973000024 ] ], [ [ -65.908712214999923, 0.888859973000024 ], [ -65.908439635999969, 0.888821005000182 ] ], [ [ -65.908439635999969, 0.888821005000182 ], [ -65.901184082999919, 0.883583009000063 ] ], [ [ -65.901184082999919, 0.883583009000063 ], [ -65.901164605056408, 0.883625351877256 ] ], [ [ -65.897198807775865, 0.892194000134915 ], [ -65.897141284025153, 0.892228594903918 ] ], [ [ -65.897141284025153, 0.892228594903918 ], [ -65.89710708225013, 0.892249163842691 ] ], [ [ -65.881786110006487, 0.901463116779372 ], [ -65.881786097999964, 0.901463124000031 ] ], [ [ -65.881786097999964, 0.901463124000031 ], [ -65.881591796999885, 0.901579976000107 ] ], [ [ -65.881591796999885, 0.901579976000107 ], [ -65.88158832794204, 0.901589002388476 ] ], [ [ -65.881532642293038, 0.901733894839518 ], [ -65.87377479099996, 0.921919491000153 ] ], [ [ -65.87377479099996, 0.921919491000153 ], [ -65.873774790696785, 0.92191949178902 ] ], [ [ -65.879700811177131, 0.932658825018263 ], [ -65.879700810999907, 0.932658825000033 ] ], [ [ -65.879700810999907, 0.932658825000033 ], [ -65.862319946999946, 0.930871010000146 ] ], [ [ -65.862319946999946, 0.930871010000146 ], [ -65.831703184999981, 0.940025986000023 ] ], [ [ -65.831703184999981, 0.940025986000023 ], [ -65.831667523473641, 0.940054010627905 ] ], [ [ -65.816393776133182, 0.952050958462197 ], [ -65.809173583999893, 0.948989987000175 ] ], [ [ -65.809173583999893, 0.948989987000175 ], [ -65.793899535999969, 0.95406097100016 ] ], [ [ -65.793899535999969, 0.95406097100016 ], [ -65.793877675999966, 0.954088824000053 ] ], [ [ -65.793877675999966, 0.954088824000053 ], [ -65.793877675787471, 0.954088824270816 ] ], [ [ -65.787777132999963, 0.96184327800006 ], [ -65.780006409999942, 0.964012026000091 ] ], [ [ -65.780006409999942, 0.964012026000091 ], [ -65.774177551999855, 0.959047974000043 ] ], [ [ -65.774177551999855, 0.959047974000043 ], [ -65.767227172999981, 0.964021027000058 ] ], [ [ -65.767227172999981, 0.964021027000058 ], [ -65.767221738112113, 0.964036160687639 ] ], [ [ -65.767166271943381, 0.964190612372768 ], [ -65.767166270999894, 0.964190615 ] ], [ [ -65.767166270999894, 0.964190615 ], [ -65.761185203135426, 0.980845610622823 ] ], [ [ -65.761100906702282, 0.981020013039542 ], [ -65.750839232999908, 0.982382 ] ], [ [ -65.750839232999908, 0.982382 ], [ -65.750822606999975, 0.982407073000047 ] ], [ [ -65.750659532738112, 0.982653001395045 ], [ -65.746488629461709, 0.988943033105566 ] ], [ [ -65.746488629461709, 0.988943033105566 ], [ -65.739510663412744, 0.999466323820864 ] ], [ [ -65.739442631743074, 0.999560666172293 ], [ -65.721672058999957, 1.001564980000012 ] ], [ [ -65.721672058999957, 1.001564980000012 ], [ -65.712226868999892, 0.997415007000143 ] ], [ [ -65.712226868999892, 0.997415007000143 ], [ -65.705841064999902, 1.002930045000085 ] ], [ [ -65.705841064999902, 1.002930045000085 ], [ -65.69555663999995, 1.004030944000135 ] ], [ [ -65.69555663999995, 1.004030944000135 ], [ -65.688606261999951, 0.999601006000091 ] ], [ [ -65.688606261999951, 0.999601006000091 ], [ -65.686668395999902, 0.990747988000123 ] ], [ [ -65.686668395999902, 0.990747988000123 ], [ -65.678611755999896, 0.988770008000074 ] ], [ [ -65.678611755999896, 0.988770008000074 ], [ -65.678593225274838, 0.988797429593151 ] ], [ [ -65.678559606273851, 0.988847177594694 ], [ -65.678559605999908, 0.988847178000071 ] ], [ [ -65.678559605999908, 0.988847178000071 ], [ -65.669448851999903, 1.002328992000173 ] ], [ [ -65.669448851999903, 1.002328992000173 ], [ -65.652786255999956, 1.011741995000023 ] ], [ [ -65.652786255999956, 1.011741995000023 ], [ -65.65083158799996, 1.010141541999985 ] ], [ [ -65.65083158799996, 1.010141541999985 ], [ -65.650831587099063, 1.010141541262338 ] ], [ [ -65.643902682596334, 1.004468257126115 ], [ -65.643902679999883, 1.004468255000177 ] ], [ [ -65.643902679999883, 1.004468255000177 ], [ -65.624999998999954, 0.98899102200005 ] ], [ [ -65.624999998999954, 0.98899102200005 ], [ -65.625006242937474, 0.989047949430852 ] ], [ [ -65.62506607557053, 0.989593436202517 ], [ -65.627182702377937, 1.008890605329125 ] ], [ [ -65.627193270280628, 1.009233567984283 ], [ -65.627193269999964, 1.009233568000184 ] ], [ [ -65.627193269999964, 1.009233568000184 ], [ -65.617530823999857, 1.009781003000114 ] ], [ [ -65.617530823999857, 1.009781003000114 ], [ -65.610298156999988, 1.014220954000052 ] ], [ [ -65.610298156999988, 1.014220954000052 ], [ -65.606689452999888, 1.004459976000135 ] ], [ [ -65.606689452999888, 1.004459976000135 ], [ -65.591133116999913, 1.002210021 ] ], [ [ -65.591133116999913, 1.002210021 ], [ -65.586684322999986, 1.007577374000107 ] ], [ [ -65.586684322999986, 1.007577374000107 ], [ -65.586684203687454, 1.007577517947551 ] ], [ [ -65.58557848241918, 1.008910231285943 ], [ -65.585326982999902, 1.008458760000053 ] ], [ [ -65.585326982999902, 1.008458760000053 ], [ -65.585326982577087, 1.008458759241059 ] ], [ [ -65.572726713524034, 0.985839781097005 ], [ -65.572726703999933, 0.985839764000104 ] ], [ [ -65.572726703999933, 0.985839764000104 ], [ -65.57224273699984, 0.984970987000054 ] ], [ [ -65.57224273699984, 0.984970987000054 ], [ -65.572226352999905, 0.985001259000114 ] ], [ [ -65.567237735999981, 0.994188514000029 ], [ -65.5578002929999, 0.993290007000041 ] ], [ [ -65.5578002929999, 0.993290007000041 ], [ -65.561408996999887, 0.98578697500011 ] ], [ [ -65.561408996999887, 0.98578697500011 ], [ -65.558082580999894, 0.975849986000071 ] ], [ [ -65.558082580999894, 0.975849986000071 ], [ -65.55681248407835, 0.975822530066678 ] ], [ [ -65.542995189665319, 0.97552383733867 ], [ -65.542995173999884, 0.975523837000026 ] ], [ [ -65.542995173999884, 0.975523837000026 ], [ -65.541938781999988, 0.975501001000055 ] ], [ [ -65.541938781999988, 0.975501001000055 ], [ -65.537246703999983, 0.961040019000109 ] ], [ [ -65.537246703999983, 0.961040019000109 ], [ -65.530884611088865, 0.95607464006947 ] ], [ [ -65.532023125003477, 0.954416276714533 ], [ -65.536415099999942, 0.948026001000187 ] ], [ [ -65.536415099999942, 0.948026001000187 ], [ -65.535722219999968, 0.947411677000161 ] ], [ [ -65.535722219999968, 0.947411677000161 ], [ -65.535722217866933, 0.947411675108964 ] ], [ [ -65.525178317173854, 0.938063201700892 ], [ -65.525178312999913, 0.938063198000179 ] ], [ [ -65.525178312999913, 0.938063198000179 ], [ -65.524497986999961, 0.937460005000048 ] ], [ [ -65.524497986999961, 0.937460005000048 ], [ -65.522003174999952, 0.929329991000088 ] ], [ [ -65.522003174999952, 0.929329991000088 ], [ -65.508377073999952, 0.915509999000051 ] ], [ [ -65.508377073999952, 0.915509999000051 ], [ -65.513938903999986, 0.895439983000188 ] ], [ [ -65.513938903999986, 0.895439983000188 ], [ -65.512283324999942, 0.885219992000032 ] ], [ [ -65.512283324999942, 0.885219992000032 ], [ -65.496162413999969, 0.889311017000068 ] ], [ [ -65.496162413999969, 0.889311017000068 ], [ -65.49366760199996, 0.882081986000117 ] ], [ [ -65.49366760199996, 0.882081986000117 ], [ -65.496406708999928, 0.878878187000112 ] ], [ [ -65.496406708999928, 0.878878187000112 ], [ -65.496406772440594, 0.878878112796668 ] ], [ [ -65.505253782648523, 0.868530198843729 ], [ -65.505271910999909, 0.868508995000184 ] ], [ [ -65.505271910999909, 0.868508995000184 ], [ -65.505176189371454, 0.868009169383325 ] ], [ [ -65.500313670853117, 0.842595190228069 ], [ -65.500280480999891, 0.842420624000169 ] ], [ [ -65.500280480999891, 0.842420624000169 ], [ -65.500280480943303, 0.84242062370254 ] ], [ [ -65.521386584298725, 0.840117344593408 ], [ -65.521392821999882, 0.840120017000118 ] ], [ [ -65.521392821999882, 0.840120017000118 ], [ -65.525174109485036, 0.836046069734391 ] ], [ [ -65.527753079046434, 0.833267496205874 ], [ -65.527778625999986, 0.833239972000115 ] ], [ [ -65.527778625999986, 0.833239972000115 ], [ -65.524169921999885, 0.82457 ] ], [ [ -65.524169921999885, 0.82457 ], [ -65.531087033940096, 0.805160137167918 ] ], [ [ -65.540804169613935, 0.805131019000044 ], [ -65.540804169999888, 0.805131019000044 ] ], [ [ -65.540804169999888, 0.805131019000044 ], [ -65.540832519999924, 0.805131019000044 ] ], [ [ -65.540832519999924, 0.805131019000044 ], [ -65.539718627999946, 0.796809972000176 ] ], [ [ -65.539718627999946, 0.796809972000176 ], [ -65.548593589999939, 0.774603223000156 ] ], [ [ -65.548593589999939, 0.774603223000156 ], [ -65.548593590149082, 0.774603222626964 ] ], [ [ -65.556405324310873, 0.777627267304196 ], [ -65.556405325999947, 0.777627265999968 ] ], [ [ -65.556405325999947, 0.777627265999968 ], [ -65.563613891999978, 0.772060991000103 ] ], [ [ -65.563613891999978, 0.772060991000103 ], [ -65.573487352777093, 0.764432551490184 ] ], [ [ -65.573591439782362, 0.764352132168245 ], [ -65.573591439999973, 0.764352132000113 ] ], [ [ -65.573591439999973, 0.764352132000113 ], [ -65.573608397999863, 0.764339030000087 ] ], [ [ -65.573608397999863, 0.764339030000087 ], [ -65.573618210974686, 0.764251952224241 ] ], [ [ -65.575806297175859, 0.744835506439502 ], [ -65.575815166386235, 0.744756804202965 ] ], [ [ -65.575815166386235, 0.744756804202965 ], [ -65.575827845695173, 0.744644292499054 ] ], [ [ -65.591336039943897, 0.721672667602014 ], [ -65.591392516999974, 0.721589030000189 ] ], [ [ -65.591392516999974, 0.721589030000189 ], [ -65.584991453999976, 0.714631021000116 ] ], [ [ -65.584991453999976, 0.714631021000116 ], [ -65.576393125999971, 0.711561025000094 ] ], [ [ -65.576393125999971, 0.711561025000094 ], [ -65.575944899109587, 0.710246168055695 ] ], [ [ -65.568201451569209, 0.687531035736646 ], [ -65.564163207999968, 0.675684989 ] ], [ [ -65.564163207999968, 0.675684989 ], [ -65.558052061999945, 0.669910013000049 ] ], [ [ -65.558052061999945, 0.669910013000049 ], [ -65.553611755999896, 0.658249975 ] ], [ [ -65.553611755999896, 0.658249975 ], [ -65.545829773999969, 0.655451001000074 ] ], [ [ -65.545829773999969, 0.655451001000074 ], [ -65.54055023199993, 0.648760022000033 ] ], [ [ -65.54055023199993, 0.648760022000033 ], [ -65.54053332999996, 0.648792439000147 ] ], [ [ -65.54053332999996, 0.648792439000147 ], [ -65.54053332982545, 0.648792439334855 ] ], [ [ -65.530541985817521, 0.667930904025477 ], [ -65.513740713999937, 0.670267451000086 ] ], [ [ -65.513740713999937, 0.670267451000086 ], [ -65.513740711744518, 0.670267451313747 ] ], [ [ -65.502423522981928, 0.671841330174641 ], [ -65.500549316999866, 0.672101975000032 ] ], [ [ -65.500549316999866, 0.672101975000032 ], [ -65.494987486999946, 0.678249003000076 ] ], [ [ -65.494987486999946, 0.678249003000076 ], [ -65.484710692999954, 0.678801 ] ], [ [ -65.484710692999954, 0.678801 ], [ -65.484696475999954, 0.678826774000186 ] ], [ [ -65.484696475999954, 0.678826774000186 ], [ -65.484696475855344, 0.678826774262367 ] ], [ [ -65.480264435153515, 0.686847962313381 ], [ -65.472206115999882, 0.682699978000187 ] ], [ [ -65.472206115999882, 0.682699978000187 ], [ -65.452774047999924, 0.685415029000012 ] ], [ [ -65.452774047999924, 0.685415029000012 ], [ -65.443046569999865, 0.689849974000083 ] ], [ [ -65.443046569999865, 0.689849974000083 ], [ -65.443036744999915, 0.689872789000106 ] ], [ [ -65.443036744999915, 0.689872789000106 ], [ -65.443036744780017, 0.689872789510747 ] ], [ [ -65.43859779018986, 0.700165371997902 ], [ -65.438506887272681, 0.700212498340222 ] ], [ [ -65.423664678332614, 0.707907033272356 ], [ -65.423664674999884, 0.707907035000119 ] ], [ [ -65.423664674999884, 0.707907035000119 ], [ -65.42360687199988, 0.707937002 ] ], [ [ -65.42360687199988, 0.707937002 ], [ -65.423605622999958, 0.70795053500018 ] ], [ [ -65.423605622999958, 0.70795053500018 ], [ -65.423605622976893, 0.707950535250038 ] ], [ [ -65.423575581940383, 0.708275973645493 ], [ -65.422467453328039, 0.720280542446053 ] ], [ [ -65.421367859059657, 0.732078773958778 ], [ -65.421367858999986, 0.732078774000172 ] ], [ [ -65.421367858999986, 0.732078774000172 ], [ -65.410552977999942, 0.73958098900016 ] ], [ [ -65.410552977999942, 0.73958098900016 ], [ -65.410559667999962, 0.739591198000028 ] ], [ [ -65.410559667999962, 0.739591198000028 ], [ -65.410559668245412, 0.739591198374599 ] ], [ [ -65.415809474910318, 0.747649162347047 ], [ -65.415733588307873, 0.747943331320633 ] ], [ [ -65.415733588307873, 0.747943331320633 ], [ -65.415709915069343, 0.748035098932545 ] ], [ [ -65.413869055064424, 0.755127704020773 ], [ -65.413869054999964, 0.755127704000188 ] ], [ [ -65.413869054999964, 0.755127704000188 ], [ -65.397483824999938, 0.749894023000138 ] ], [ [ -65.397483824999938, 0.749894023000138 ], [ -65.397477113124268, 0.749922824466584 ] ], [ [ -65.399697037163364, 0.767089352216319 ], [ -65.394990847341845, 0.774303163134255 ] ], [ [ -65.405165969944164, 0.803565646376014 ], [ -65.405165970999974, 0.803565648000131 ] ], [ [ -65.405165970999974, 0.803565648000131 ], [ -65.412513943999897, 0.814868784999987 ] ], [ [ -65.412513943999897, 0.814868784999987 ], [ -65.412513945693831, 0.814868787605701 ] ], [ [ -65.413020803894895, 0.815700068039385 ], [ -65.398040770999842, 0.821299017 ] ], [ [ -65.398040770999842, 0.821299017 ], [ -65.398031965999905, 0.821330441000157 ] ], [ [ -65.3980227427991, 0.821363352148652 ], [ -65.398022741999966, 0.821363355000187 ] ], [ [ -65.398022741999966, 0.821363355000187 ], [ -65.391675311051614, 0.844015417246916 ] ], [ [ -65.391648608698816, 0.844092572362927 ], [ -65.38471221899988, 0.849061012000163 ] ], [ [ -65.38471221899988, 0.849061012000163 ], [ -65.376937866999924, 0.849339008000072 ] ], [ [ -65.376937866999924, 0.849339008000072 ], [ -65.376931964095789, 0.849366001561585 ] ], [ [ -65.37692384048907, 0.84940315533645 ], [ -65.373599593999927, 0.864605420000032 ] ], [ [ -65.373599593999927, 0.864605420000032 ], [ -65.373599593345261, 0.864605422994401 ] ], [ [ -65.37359205166733, 0.864622576327359 ], [ -65.373502048999967, 0.86465717700014 ] ], [ [ -65.373502048999967, 0.86465717700014 ], [ -65.373502046726131, 0.864657177874309 ] ], [ [ -65.351988882910561, 0.87292783941883 ], [ -65.351928710999971, 0.872950972000069 ] ], [ [ -65.351928710999971, 0.872950972000069 ], [ -65.351933838999912, 0.872964465000052 ] ], [ [ -65.351933838999912, 0.872964465000052 ], [ -65.351933839091203, 0.87296446524025 ] ], [ [ -65.356359414634824, 0.88461669524813 ], [ -65.356329740454868, 0.884636847160849 ] ], [ [ -65.356329740454868, 0.884636847160849 ], [ -65.356289395559912, 0.884664245619803 ] ], [ [ -65.343358658724512, 0.893445606866276 ], [ -65.343322754999917, 0.893469989000096 ] ], [ [ -65.343322754999917, 0.893469989000096 ], [ -65.343314939999914, 0.893491001000029 ] ], [ [ -65.343314939999914, 0.893491001000029 ], [ -65.343314939931631, 0.893491001183629 ] ], [ [ -65.339633968445767, 0.903387671490134 ], [ -65.336191432999897, 0.912643281000044 ] ], [ [ -65.336191432999897, 0.912643281000044 ], [ -65.336191432867764, 0.912643281355291 ] ], [ [ -65.329149223731804, 0.931534339866133 ], [ -65.321937559999867, 0.927928984000062 ] ], [ [ -65.321937559999867, 0.927928984000062 ], [ -65.302764891999971, 0.942134023000108 ] ], [ [ -65.302764891999971, 0.942134023000108 ], [ -65.277488707999908, 0.938172996000162 ] ], [ [ -65.277488707999908, 0.938172996000162 ], [ -65.269981384999937, 0.943239986000037 ] ], [ [ -65.269981384999937, 0.943239986000037 ], [ -65.264150562075372, 0.934031969119228 ] ], [ [ -65.269409191559461, 0.926807916748628 ], [ -65.269424438999977, 0.926787019000187 ] ], [ [ -65.269424438999977, 0.926787019000187 ], [ -65.263603210999975, 0.919560016000048 ] ], [ [ -65.263603210999975, 0.919560016000048 ], [ -65.256927490999885, 0.925171018000128 ] ], [ [ -65.256927490999885, 0.925171018000128 ], [ -65.256830329999957, 0.925145908000047 ] ], [ [ -65.256830329999957, 0.925145908000047 ], [ -65.256830328123257, 0.925145907515049 ] ], [ [ -65.240933506938958, 0.921051634727516 ], [ -65.240814208999893, 0.921020984000165 ] ], [ [ -65.240814208999893, 0.921020984000165 ], [ -65.221321104999959, 0.927722991000167 ] ], [ [ -65.221321104999959, 0.927722991000167 ], [ -65.220517805999975, 0.927787611000042 ] ], [ [ -65.220517805999975, 0.927787611000042 ], [ -65.220517803661309, 0.927787611188172 ] ], [ [ -65.210730816481501, 0.928574909489768 ], [ -65.208877563999977, 0.928723991000027 ] ], [ [ -65.208877563999977, 0.928723991000027 ], [ -65.205261229999962, 0.917064012000139 ] ], [ [ -65.205261229999962, 0.917064012000139 ], [ -65.207489013999918, 0.906847000000141 ] ], [ [ -65.207489013999918, 0.906847000000141 ], [ -65.197196959999928, 0.910739006000085 ] ], [ [ -65.197196959999928, 0.910739006000085 ], [ -65.182487487999936, 0.922420025000179 ] ], [ [ -65.182487487999936, 0.922420025000179 ], [ -65.1714928049999, 0.940030063999984 ] ], [ [ -65.1714928049999, 0.940030063999984 ], [ -65.171492804433015, 0.940030064907969 ] ], [ [ -65.165944618017519, 0.948915278768991 ], [ -65.165944615999933, 0.948915282000087 ] ], [ [ -65.165944615999933, 0.948915282000087 ], [ -65.164985657999921, 0.950451016000159 ] ], [ [ -65.164985657999921, 0.950451016000159 ], [ -65.164983961999951, 0.950465240000085 ] ], [ [ -65.164983961999951, 0.950465240000085 ], [ -65.164983961982358, 0.95046524014761 ] ], [ [ -65.164971205905644, 0.950572231403809 ], [ -65.164971204999972, 0.950572239000167 ] ], [ [ -65.164971204999972, 0.950572239000167 ], [ -65.161643980999941, 0.978479981000021 ] ], [ [ -65.161643980999941, 0.978479981000021 ], [ -65.154975890999935, 0.986801029000162 ] ], [ [ -65.154975890999935, 0.986801029000162 ], [ -65.147288663999916, 1.009319273000074 ] ], [ [ -65.147288663999916, 1.009319273000074 ], [ -65.147288664082964, 1.009319273008464 ] ], [ [ -65.147440473432042, 1.00933461014474 ], [ -65.149314880999952, 1.009523988000069 ] ], [ [ -65.149314880999952, 1.009523988000069 ], [ -65.166694271899402, 1.011273024989973 ] ], [ [ -65.169472708179768, 1.01845840336857 ], [ -65.169472707999944, 1.018458404000171 ] ], [ [ -65.169472707999944, 1.018458404000171 ], [ -65.167060852999953, 1.026929974000154 ] ], [ [ -65.167060852999953, 1.026929974000154 ], [ -65.159011840999938, 1.033359051000161 ] ], [ [ -65.159011840999938, 1.033359051000161 ], [ -65.159006161058457, 1.033385241730483 ] ], [ [ -65.159004897964877, 1.033391065858337 ], [ -65.15402984699989, 1.056331039000156 ] ], [ [ -65.15402984699989, 1.056331039000156 ], [ -65.154029922999939, 1.056348930000127 ] ], [ [ -65.154029922999939, 1.056348930000127 ], [ -65.154029923002852, 1.056348930681915 ] ], [ [ -65.154163084195375, 1.088530453025006 ], [ -65.154163083999947, 1.088530454000079 ] ], [ [ -65.154163083999947, 1.088530454000079 ], [ -65.154157362414296, 1.08855900793251 ] ], [ [ -65.155044322999913, 1.124941402000047 ], [ -65.154433879594521, 1.125037476434359 ] ], [ [ -65.139336459767506, 1.127413567934931 ], [ -65.139336452999828, 1.127413569000055 ] ], [ [ -65.139336452999828, 1.127413569000055 ], [ -65.138870238999971, 1.127486944000168 ] ], [ [ -65.138870238999971, 1.127486944000168 ], [ -65.138606453999898, 1.127609568000025 ] ], [ [ -65.138606453999898, 1.127609568000025 ], [ -65.138606448719386, 1.127609570454755 ] ], [ [ -65.122694276899736, 1.135006593441261 ], [ -65.122512817999961, 1.135090947000037 ] ], [ [ -65.122512817999961, 1.135090947000037 ], [ -65.122504217185437, 1.135119792378095 ] ], [ [ -65.12083253959041, 1.140725947472957 ], [ -65.120832248999932, 1.140726922000169 ] ], [ [ -65.120832248999932, 1.140726922000169 ], [ -65.119140624999943, 1.146399975000179 ] ], [ [ -65.119140624999943, 1.146399975000179 ], [ -65.118949277999889, 1.146521931000109 ] ], [ [ -65.118949277999889, 1.146521931000109 ], [ -65.118949274641494, 1.146521933140604 ] ], [ [ -65.103260209481689, 1.156521477330333 ], [ -65.103088379999917, 1.156630994000182 ] ], [ [ -65.103088379999917, 1.156630994000182 ], [ -65.088172912999937, 1.145970940000097 ] ], [ [ -65.088172912999937, 1.145970940000097 ], [ -65.078697204999912, 1.14742100300009 ] ], [ [ -65.078697204999912, 1.14742100300009 ], [ -65.07125091599994, 1.153401018000068 ] ], [ [ -65.07125091599994, 1.153401018000068 ], [ -65.071110098999839, 1.153187224000135 ] ], [ [ -65.071110098999839, 1.153187224000135 ], [ -65.071110096410891, 1.153187220069492 ] ], [ [ -65.061035335499241, 1.137891347239808 ], [ -65.060964126234865, 1.137783234425264 ] ], [ [ -65.060964126234865, 1.137783234425264 ], [ -65.060897678143505, 1.137682350218101 ] ], [ [ -65.066055327713528, 1.119068335483276 ], [ -65.066062926999962, 1.119040966000171 ] ], [ [ -65.066062926999962, 1.119040966000171 ], [ -65.061340330999883, 1.111719967000056 ] ], [ [ -65.061340330999883, 1.111719967000056 ], [ -65.045776366999974, 1.116889000000128 ] ], [ [ -65.045776366999974, 1.116889000000128 ], [ -65.031318663999969, 1.115674973000125 ] ], [ [ -65.031318663999969, 1.115674973000125 ], [ -65.022247313999969, 1.114920020000056 ] ], [ [ -65.022247313999969, 1.114920020000056 ], [ -65.016403197999978, 1.124410987000147 ] ], [ [ -65.016403197999978, 1.124410987000147 ], [ -65.006698607999908, 1.128849983000066 ] ], [ [ -65.006698607999908, 1.128849983000066 ], [ -64.993392944999982, 1.147961021000185 ] ], [ [ -64.993392944999982, 1.147961021000185 ], [ -64.991638182999907, 1.150470018000021 ] ], [ [ -64.991638182999907, 1.150470018000021 ], [ -64.988336926275451, 1.15393378721878 ] ], [ [ -64.972470748139571, 1.170581016213657 ], [ -64.972470734999945, 1.170581030000108 ] ], [ [ -64.972470734999945, 1.170581030000108 ], [ -64.970252989999949, 1.172907948999978 ] ], [ [ -64.970252989999949, 1.172907948999978 ], [ -64.960800169999857, 1.189641953999967 ] ], [ [ -64.960800169999857, 1.189641953999967 ], [ -64.961237885999935, 1.196393108000109 ] ], [ [ -64.961237885999935, 1.196393108000109 ], [ -64.961237999604592, 1.19639486018359 ] ], [ [ -64.961392902723659, 1.198313201908802 ], [ -64.969678069999986, 1.217100526000138 ] ], [ [ -64.969678069999986, 1.217100526000138 ], [ -64.969678070537071, 1.217100527217997 ] ], [ [ -64.969686114171097, 1.217127362577568 ], [ -64.960807799999941, 1.230151057000171 ] ], [ [ -64.960807799999941, 1.230151057000171 ], [ -64.951637267999956, 1.231511951000186 ] ], [ [ -64.951637267999956, 1.231511951000186 ], [ -64.945808409999927, 1.225188972000069 ] ], [ [ -64.945808409999927, 1.225188972000069 ], [ -64.943580627999893, 1.215700985000069 ] ], [ [ -64.943580627999893, 1.215700985000069 ], [ -64.935241699999892, 1.211271047000025 ] ], [ [ -64.935241699999892, 1.211271047000025 ], [ -64.926361083999893, 1.21462094900005 ] ], [ [ -64.926361083999893, 1.21462094900005 ], [ -64.926183735411712, 1.214818314541817 ] ], [ [ -64.914555195627173, 1.227753960078789 ], [ -64.914555192999956, 1.227753963000112 ] ], [ [ -64.914555192999956, 1.227753963000112 ], [ -64.914405822999981, 1.227920055000141 ] ], [ [ -64.914405822999981, 1.227920055000141 ], [ -64.906631468999933, 1.24158096300016 ] ], [ [ -64.906631468999933, 1.24158096300016 ], [ -64.907028197999978, 1.248379946000057 ] ], [ [ -64.907028197999978, 1.248379946000057 ], [ -64.907196044999921, 1.251260043000059 ] ], [ [ -64.907196044999921, 1.251260043000059 ], [ -64.90061187699996, 1.252272011000116 ] ], [ [ -64.90061187699996, 1.252272011000116 ], [ -64.898456941999825, 1.252625276000117 ] ], [ [ -64.898456941999825, 1.252625276000117 ], [ -64.898308147999956, 1.252648083000167 ] ], [ [ -64.898308147999956, 1.252648083000167 ], [ -64.897898282180279, 1.252397080607939 ] ], [ [ -64.896487171947271, 1.25153291461676 ], [ -64.891082762999929, 1.248200060000102 ] ], [ [ -64.891082762999929, 1.248200060000102 ], [ -64.887718199999938, 1.235818983 ] ], [ [ -64.887718199999938, 1.235818983 ], [ -64.886634826999966, 1.231832981000082 ] ], [ [ -64.886634826999966, 1.231832981000082 ], [ -64.87857818699996, 1.228492022000125 ] ], [ [ -64.87857818699996, 1.228492022000125 ], [ -64.87814331099986, 1.228641986000127 ] ], [ [ -64.87814331099986, 1.228641986000127 ], [ -64.878050739216519, 1.228698511867925 ] ], [ [ -64.8616142961028, 1.26929741492755 ], [ -64.861614295999857, 1.269297415000153 ] ], [ [ -64.861614295999857, 1.269297415000153 ], [ -64.858886718999941, 1.271221042000093 ] ], [ [ -64.858886718999941, 1.271221042000093 ], [ -64.838582383999949, 1.285563228000171 ] ], [ [ -64.825738265982068, 1.294635809782686 ], [ -64.825109750121641, 1.295079767914158 ] ] ] } },
{ "type": "Feature", "properties": { "GID_2": "BRA.4.8_2", "NAME_2": "Barcelos", "ENGTYPE_2": "Municipality", "CC_2": "1300409", "region_ID": 2002148, "Rank_Category": 6, "UF": "AM" }, "geometry": { "type": "MultiLineString", "coordinates": [ [ [ -64.803320055184386, 1.310483369099438 ], [ -64.803320054999915, 1.310483369000167 ] ], [ [ -64.803320054999915, 1.310483369000167 ], [ -64.803298949999942, 1.310472011000115 ] ], [ [ -64.803298949999942, 1.310472011000115 ], [ -64.789145694173783, 1.285717039304215 ] ], [ [ -64.78915357865155, 1.285687971251043 ], [ -64.790542601999903, 1.284090997000078 ] ], [ [ -64.790542601999903, 1.284090997000078 ], [ -64.790021094999986, 1.282489662000046 ] ], [ [ -64.790021094999986, 1.282489662000046 ], [ -64.790021094753442, 1.282489661243019 ] ], [ [ -64.780815037359915, 1.258470910223786 ], [ -64.780517576999898, 1.258219005000115 ] ], [ [ -64.780517576999898, 1.258219005000115 ], [ -64.776489257999913, 1.25157499300002 ] ], [ [ -64.776489257999913, 1.25157499300002 ], [ -64.763854980999952, 1.230741025000157 ] ], [ [ -64.763854980999952, 1.230741025000157 ], [ -64.757469176999962, 1.226225973000169 ] ], [ [ -64.757469176999962, 1.226225973000169 ], [ -64.746635436999895, 1.225417018000087 ] ], [ [ -64.746635436999895, 1.225417018000087 ], [ -64.730320964999976, 1.234215439000025 ] ], [ [ -64.730320964999976, 1.234215439000025 ], [ -64.730320962700347, 1.234215440240219 ] ], [ [ -64.723212677580818, 1.23804895092259 ], [ -64.722457885999972, 1.238456011000096 ] ], [ [ -64.722457885999972, 1.238456011000096 ], [ -64.721343993999938, 1.247138023000048 ] ], [ [ -64.721343993999938, 1.247138023000048 ], [ -64.714408873999957, 1.251029968000125 ] ], [ [ -64.714408873999957, 1.251029968000125 ], [ -64.709686279999914, 1.269302011000036 ] ], [ [ -64.709686279999914, 1.269302011000036 ], [ -64.704406737999818, 1.275997996000058 ] ], [ [ -64.704406737999818, 1.275997996000058 ], [ -64.705245971999886, 1.283771992000084 ] ], [ [ -64.705245971999886, 1.283771992000084 ], [ -64.701995849999889, 1.291074992 ] ], [ [ -64.701995849999889, 1.291074992 ], [ -64.701850890999822, 1.291234017000136 ] ], [ [ -64.701850890999822, 1.291234017000136 ], [ -64.684684753999932, 1.283786058000032 ] ], [ [ -64.684684753999932, 1.283786058000032 ], [ -64.676628113999925, 1.285418034000031 ] ], [ [ -64.676628113999925, 1.285418034000031 ], [ -64.668571471999883, 1.291844965000053 ] ], [ [ -64.668571471999883, 1.291844965000053 ], [ -64.660240172999977, 1.291309000000183 ] ], [ [ -64.660240172999977, 1.291309000000183 ], [ -64.644683836999945, 1.304883957000129 ] ], [ [ -64.644683836999945, 1.304883957000129 ], [ -64.634956358999887, 1.320171953000113 ] ], [ [ -64.634956358999887, 1.320171953000113 ], [ -64.624122618999934, 1.324072003000026 ] ], [ [ -64.624122618999934, 1.324072003000026 ], [ -64.62378800180511, 1.324377864521896 ] ], [ [ -64.611600783684082, 1.335517744202869 ], [ -64.611351012999876, 1.335746050000068 ] ], [ [ -64.611351012999876, 1.335746050000068 ], [ -64.590789793999932, 1.337383987000123 ] ], [ [ -64.590789793999932, 1.337383987000123 ], [ -64.590545543446794, 1.337660207101991 ] ], [ [ -64.576208593222347, 1.353873658748455 ], [ -64.576208592999819, 1.353873659000101 ] ], [ [ -64.576208592999819, 1.353873659000101 ], [ -64.57606506399992, 1.354035974000112 ] ], [ [ -64.57606506399992, 1.354035974000112 ], [ -64.576088265999886, 1.354054813000118 ] ], [ [ -64.582179557923183, 1.359020197290288 ], [ -64.58036041299988, 1.365895988000148 ] ], [ [ -64.58036041299988, 1.365895988000148 ], [ -64.579956053999979, 1.367416979000154 ] ], [ [ -64.579956053999979, 1.367416979000154 ], [ -64.582733153999982, 1.375463964000062 ] ], [ [ -64.582733153999982, 1.375463964000062 ], [ -64.573844909999821, 1.383520961000158 ] ], [ [ -64.573844909999821, 1.383520961000158 ], [ -64.572128296999892, 1.386301994000121 ] ], [ [ -64.572128296999892, 1.386301994000121 ], [ -64.553291321999893, 1.416815044000032 ] ], [ [ -64.553291321999893, 1.416815044000032 ], [ -64.553080233999935, 1.41689982500003 ] ], [ [ -64.553080233999935, 1.41689982500003 ], [ -64.553080231523452, 1.416899825994687 ] ], [ [ -64.530641968110643, 1.425911927553962 ], [ -64.530641966999951, 1.425911928000062 ] ], [ [ -64.530641966999951, 1.425911928000062 ], [ -64.53050994899985, 1.425964952000186 ] ], [ [ -64.53050994899985, 1.425964952000186 ], [ -64.531341552999891, 1.435191035000173 ] ], [ [ -64.531341552999891, 1.435191035000173 ], [ -64.528015136999841, 1.44405496100012 ] ], [ [ -64.528015136999841, 1.44405496100012 ], [ -64.521903990999931, 1.437638997000022 ] ], [ [ -64.521903990999931, 1.437638997000022 ], [ -64.521644429182288, 1.437699529724411 ] ], [ [ -64.500869754077726, 1.442544400448365 ], [ -64.500511168999935, 1.442628026000079 ] ], [ [ -64.500511168999935, 1.442628026000079 ], [ -64.499952831999906, 1.443082693000122 ] ], [ [ -64.499952831999906, 1.443082693000122 ], [ -64.499952831726176, 1.443082693223026 ] ], [ [ -64.487723302754063, 1.453041486942898 ], [ -64.487723298999924, 1.453041489999976 ] ], [ [ -64.487723298999924, 1.453041489999976 ], [ -64.487174988999982, 1.453487992000021 ] ], [ [ -64.487174988999982, 1.453487992000021 ], [ -64.476615905999893, 1.467967988000112 ] ], [ [ -64.476615905999893, 1.467967988000112 ], [ -64.476080731999957, 1.468251754000107 ] ], [ [ -64.476080731999957, 1.468251754000107 ], [ -64.476080730748876, 1.46825175466347 ] ], [ [ -64.454669932616767, 1.479604432505476 ], [ -64.453561062999881, 1.480192389000024 ] ], [ [ -64.449410904813135, 1.473259893028843 ], [ -64.449410902999944, 1.473259890000065 ] ], [ [ -64.449410902999944, 1.473259890000065 ], [ -64.449394225999981, 1.473232030000077 ] ], [ [ -64.449394225999981, 1.473232030000077 ], [ -64.438568115999885, 1.47179198300006 ] ], [ [ -64.438568115999885, 1.47179198300006 ], [ -64.438407463999908, 1.471946863000085 ] ], [ [ -64.438407463999908, 1.471946863000085 ], [ -64.438407462583598, 1.471946864365515 ] ], [ [ -64.424836441948074, 1.485030326122055 ], [ -64.424836439999979, 1.485030328000164 ] ], [ [ -64.424836439999979, 1.485030328000164 ], [ -64.424674987999936, 1.485185980000097 ] ], [ [ -64.424674987999936, 1.485185980000097 ], [ -64.421890258999895, 1.493507982000153 ] ], [ [ -64.421890258999895, 1.493507982000153 ], [ -64.42178645444028, 1.493624670381056 ] ], [ [ -64.410878428331188, 1.505886482627558 ], [ -64.410878427999876, 1.505886482999983 ] ], [ [ -64.410878427999876, 1.505886482999983 ], [ -64.410781860999975, 1.505995035000126 ] ], [ [ -64.410781860999975, 1.505995035000126 ], [ -64.409126281999932, 1.513775945000134 ] ], [ [ -64.409126281999932, 1.513775945000134 ], [ -64.408983434999925, 1.513935344000117 ] ], [ [ -64.408983434999925, 1.513935344000117 ], [ -64.408983432962728, 1.513935346273383 ] ], [ [ -64.397588597400883, 1.526650571552626 ], [ -64.397588596999924, 1.526650572000051 ] ], [ [ -64.397588596999924, 1.526650572000051 ], [ -64.397445678999986, 1.526810051000155 ] ], [ [ -64.397445678999986, 1.526810051000155 ], [ -64.38356018099995, 1.520393968000178 ] ], [ [ -64.38356018099995, 1.520393968000178 ], [ -64.374946594999869, 1.523746967000022 ] ], [ [ -64.374946594999869, 1.523746967000022 ], [ -64.374888111501249, 1.523733338116888 ] ], [ [ -64.36053469056661, 1.520388368132124 ], [ -64.360534689999895, 1.520388368000056 ] ], [ [ -64.360534689999895, 1.520388368000056 ], [ -64.354087829999912, 1.518885970000099 ] ], [ [ -64.354087829999912, 1.518885970000099 ], [ -64.351358802358732, 1.518249079083792 ] ], [ [ -64.348902914449795, 1.501913375013475 ], [ -64.357097443999976, 1.483941410000114 ] ], [ [ -64.357097443999976, 1.483941410000114 ], [ -64.357097444427396, 1.483941409062707 ] ], [ [ -64.38993830323939, 1.433306474908477 ], [ -64.389938303999941, 1.433306474000119 ] ], [ [ -64.389938303999941, 1.433306474000119 ], [ -64.397316644999876, 1.424494173000085 ] ], [ [ -64.397316644999876, 1.424494173000085 ], [ -64.397316645424112, 1.424494172493402 ] ], [ [ -64.393644644287548, 1.417350370973861 ], [ -64.395996093999884, 1.408962966000161 ] ], [ [ -64.395996093999884, 1.408962966000161 ], [ -64.39681515999996, 1.406042825000043 ] ], [ [ -64.39681515999996, 1.406042825000043 ], [ -64.396815160867504, 1.40604282190704 ] ], [ [ -64.399953697567426, 1.394853275790208 ], [ -64.399955748999957, 1.394845962000034 ] ], [ [ -64.399955748999957, 1.394845962000034 ], [ -64.393562316999862, 1.388519048000035 ] ], [ [ -64.393562316999862, 1.388519048000035 ], [ -64.377449034999984, 1.386538983000094 ] ], [ [ -64.377449034999984, 1.386538983000094 ], [ -64.360580443999936, 1.389675022000119 ] ], [ [ -64.360580443999936, 1.389675022000119 ], [ -64.359406772999932, 1.389894375000097 ] ], [ [ -64.359406772999932, 1.389894375000097 ], [ -64.359406772226507, 1.389894372447548 ] ], [ [ -64.345852447000084, 1.366115984625056 ], [ -64.34578704799992, 1.36602604400008 ] ], [ [ -64.34578704799992, 1.36602604400008 ], [ -64.33800506599988, 1.363494038000169 ] ], [ [ -64.33800506599988, 1.363494038000169 ], [ -64.335227965999877, 1.370735050000121 ] ], [ [ -64.335227965999877, 1.370735050000121 ], [ -64.335252450999974, 1.37075231700004 ] ], [ [ -64.335252450999974, 1.37075231700004 ], [ -64.335252451422349, 1.370752317297895 ] ], [ [ -64.341889861018629, 1.375447158197276 ], [ -64.342727659999923, 1.384297968000055 ] ], [ [ -64.342727659999923, 1.384297968000055 ], [ -64.337448119999976, 1.391536952000024 ] ], [ [ -64.337448119999976, 1.391536952000024 ], [ -64.329673765999871, 1.394884944000069 ] ], [ [ -64.329673765999871, 1.394884944000069 ], [ -64.326065063999977, 1.401854038000124 ] ], [ [ -64.326065063999977, 1.401854038000124 ], [ -64.324951171999942, 1.410717963000138 ] ], [ [ -64.324951171999942, 1.410717963000138 ], [ -64.329116821999889, 1.419309973000168 ] ], [ [ -64.329116821999889, 1.419309973000168 ], [ -64.329006379212046, 1.41991246084325 ] ], [ [ -64.326157483924959, 1.435452305405635 ], [ -64.326065063999977, 1.435951947999968 ] ], [ [ -64.326065063999977, 1.435951947999968 ], [ -64.325645446999886, 1.436169028000165 ] ], [ [ -64.325645446999886, 1.436169028000165 ], [ -64.318008421999934, 1.44011902800014 ] ], [ [ -64.318008421999934, 1.44011902800014 ], [ -64.313011169999925, 1.447900058000016 ] ], [ [ -64.313011169999925, 1.447900058000016 ], [ -64.313003539999897, 1.453938961000119 ] ], [ [ -64.313003539999897, 1.453938961000119 ], [ -64.313003539999897, 1.456310034000069 ] ], [ [ -64.313003539999897, 1.456310034000069 ], [ -64.309654234999982, 1.457929967999974 ] ], [ [ -64.309654234999982, 1.457929967999974 ], [ -64.304389953999987, 1.460477948000118 ] ], [ [ -64.304389953999987, 1.460477948000118 ], [ -64.302780150999922, 1.466120959000136 ] ], [ [ -64.302780150999922, 1.466120959000136 ], [ -64.302169799999945, 1.468256950000011 ] ], [ [ -64.302169799999945, 1.468256950000011 ], [ -64.300292968999941, 1.469076991000122 ] ], [ [ -64.300292968999941, 1.469076991000122 ], [ -64.278839110999854, 1.478492976000155 ] ], [ [ -64.278839110999854, 1.478492976000155 ], [ -64.275779722999914, 1.485458016000052 ] ], [ [ -64.275779722999914, 1.485458016000052 ], [ -64.267448424999827, 1.484648943000138 ] ], [ [ -64.267448424999827, 1.484648943000138 ], [ -64.261611938999977, 1.499848007000082 ] ], [ [ -64.261611938999977, 1.499848007000082 ], [ -64.261023345306668, 1.500193988231986 ] ], [ [ -64.24802239222268, 1.507836075456878 ], [ -64.247444152999947, 1.508175969999968 ] ], [ [ -64.247444152999947, 1.508175969999968 ], [ -64.240226744999916, 1.51125705200019 ] ], [ [ -64.240226744999916, 1.51125705200019 ], [ -64.223274229999959, 1.507104992 ] ], [ [ -64.223274229999959, 1.507104992 ], [ -64.215499877999946, 1.50846505100003 ] ], [ [ -64.215499877999946, 1.50846505100003 ], [ -64.206876290338187, 1.515337073339892 ] ], [ [ -64.19558294096916, 1.524336591837156 ], [ -64.195582936999983, 1.524336595000136 ] ], [ [ -64.195582936999983, 1.524336595000136 ], [ -64.194938659999877, 1.524850011000183 ] ], [ [ -64.194938659999877, 1.524850011000183 ], [ -64.193832397999927, 1.54266798600014 ] ], [ [ -64.193832397999927, 1.54266798600014 ], [ -64.174942017999967, 1.562940956000148 ] ], [ [ -64.174942017999967, 1.562940956000148 ], [ -64.173828124999886, 1.570994019000068 ] ], [ [ -64.173828124999886, 1.570994019000068 ], [ -64.167716978999977, 1.575971007000078 ] ], [ [ -64.167716978999977, 1.575971007000078 ], [ -64.159942626999964, 1.574347973000101 ] ], [ [ -64.159942626999964, 1.574347973000101 ], [ -64.147842407999917, 1.580508947000055 ] ], [ [ -64.147842407999917, 1.580508947000055 ], [ -64.144111632999966, 1.582406998000124 ] ], [ [ -64.144111632999966, 1.582406998000124 ], [ -64.143249511999954, 1.581848980000132 ] ], [ [ -64.143249511999954, 1.581848980000132 ], [ -64.135498046999942, 1.576802968000095 ] ], [ [ -64.135498046999942, 1.576802968000095 ], [ -64.126052856999877, 1.577623964000168 ] ], [ [ -64.126052856999877, 1.577623964000168 ], [ -64.112167358999955, 1.589300036000054 ] ], [ [ -64.112167358999955, 1.589300036000054 ], [ -64.109207152999943, 1.603054046000182 ] ], [ [ -64.109207152999943, 1.603054046000182 ], [ -64.095214843999884, 1.617079973000102 ] ], [ [ -64.095214843999884, 1.617079973000102 ], [ -64.095016365103234, 1.617668873759319 ] ], [ [ -64.090336517207149, 1.631554274451165 ], [ -64.090336514999933, 1.631554281000092 ] ], [ [ -64.090336514999933, 1.631554281000092 ], [ -64.087440489999949, 1.640146971000149 ] ], [ [ -64.087440489999949, 1.640146971000149 ], [ -64.075500487999932, 1.652639031999968 ] ], [ [ -64.075500487999932, 1.652639031999968 ], [ -64.065223693999883, 1.675981998000111 ] ], [ [ -64.065223693999883, 1.675981998000111 ], [ -64.066604613999914, 1.683758020000141 ] ], [ [ -64.066604613999914, 1.683758020000141 ], [ -64.066423650429542, 1.684368998173478 ] ], [ [ -64.06147942838065, 1.701061891467284 ], [ -64.06132507399991, 1.701583028000073 ] ], [ [ -64.06132507399991, 1.701583028000073 ], [ -64.066886901999908, 1.707909942000072 ] ], [ [ -64.066886901999908, 1.707909942000072 ], [ -64.07089233399995, 1.721439004 ] ], [ [ -64.07089233399995, 1.721439004 ], [ -64.072166441999968, 1.725728989000118 ] ], [ [ -64.072166441999968, 1.725728989000118 ], [ -64.070335387999876, 1.727291942000022 ] ], [ [ -64.070335387999876, 1.727291942000022 ], [ -64.066322327999956, 1.730705977000184 ] ], [ [ -64.066322327999956, 1.730705977000184 ], [ -64.065216063999969, 1.739843011000175 ] ], [ [ -64.065216063999969, 1.739843011000175 ], [ -64.068832397999984, 1.747622013000068 ] ], [ [ -64.068832397999984, 1.747622013000068 ], [ -64.06885298065103, 1.747631567838047 ] ], [ [ -64.076609457054104, 1.751249219303467 ], [ -64.077995299999941, 1.759013057000175 ] ], [ [ -64.077995299999941, 1.759013057000175 ], [ -64.077852254999925, 1.759294350000118 ] ], [ [ -64.077852254999925, 1.759294350000118 ], [ -64.077852254902567, 1.759294350191558 ] ], [ [ -64.062708744108761, 1.789066762786146 ], [ -64.062708743999906, 1.789066763000108 ] ], [ [ -64.062708743999906, 1.789066763000108 ], [ -64.062438965999945, 1.789597035000099 ] ], [ [ -64.062438965999945, 1.789597035000099 ], [ -64.061889647999976, 1.805425049 ] ], [ [ -64.061889647999976, 1.805425049 ], [ -64.05799102799989, 1.812937021000039 ] ], [ [ -64.05799102799989, 1.812937021000039 ], [ -64.06272125199996, 1.820713998000031 ] ], [ [ -64.06272125199996, 1.820713998000031 ], [ -64.055221557999914, 1.825420023000106 ] ], [ [ -64.055221557999914, 1.825420023000106 ], [ -64.055235782999944, 1.825683733000062 ] ], [ [ -64.055235782999944, 1.825683733000062 ], [ -64.055235783026887, 1.825683733499488 ] ], [ [ -64.056053274839954, 1.840838678034839 ], [ -64.056053274999897, 1.840838681000037 ] ], [ [ -64.056053274999897, 1.840838681000037 ], [ -64.056060791999982, 1.840978027000062 ] ], [ [ -64.056060791999982, 1.840978027000062 ], [ -64.056080508999912, 1.840985810000063 ] ], [ [ -64.065233689394844, 1.84461550952746 ], [ -64.066841124999939, 1.846761941000068 ] ], [ [ -64.066841124999939, 1.846761941000068 ], [ -64.071052551999969, 1.852368951000187 ] ], [ [ -64.071052551999969, 1.852368951000187 ], [ -64.061889647999976, 1.882676959000037 ] ], [ [ -64.061889647999976, 1.882676959000037 ], [ -64.064109801999905, 1.898504973000115 ] ], [ [ -64.064109801999905, 1.898504973000115 ], [ -64.064033439999889, 1.898829554000031 ] ], [ [ -64.064033439999889, 1.898829554000031 ], [ -64.064033439766547, 1.89882955499188 ] ], [ [ -64.060547334442717, 1.913647459368732 ], [ -64.060501097999918, 1.913843989000043 ] ], [ [ -64.060501097999918, 1.913843989000043 ], [ -64.061416625999925, 1.924929499000143 ] ], [ [ -64.061416625999925, 1.924929499000143 ], [ -64.061889647999976, 1.930709957000033 ] ], [ [ -64.061889647999976, 1.930709957000033 ], [ -64.06172174934504, 1.930743738729518 ] ], [ [ -64.045457034368269, 1.934016224328416 ], [ -64.045219421999946, 1.934064031999981 ] ], [ [ -64.045219421999946, 1.934064031999981 ], [ -64.041610717999959, 1.942664027000035 ] ], [ [ -64.041610717999959, 1.942664027000035 ], [ -64.041487514999972, 1.942711136000128 ] ], [ [ -64.041487514999972, 1.942711136000128 ], [ -64.04148751435946, 1.942711136245043 ] ], [ [ -64.019434967608177, 1.951143371914693 ], [ -64.019111632999909, 1.951267005000091 ] ], [ [ -64.019111632999909, 1.951267005000091 ], [ -64.017997740999931, 1.958778977000065 ] ], [ [ -64.017997740999931, 1.958778977000065 ], [ -64.011329650999869, 1.962401032000173 ] ], [ [ -64.011329650999869, 1.962401032000173 ], [ -64.001602172999981, 1.974890947 ] ], [ [ -64.001602172999981, 1.974890947 ], [ -63.995494841999914, 1.979868055000054 ] ], [ [ -63.995494841999914, 1.979868055000054 ], [ -63.987438201999964, 1.97905898 ] ], [ [ -63.987438201999964, 1.97905898 ], [ -63.975494383999944, 1.99127805300003 ] ], [ [ -63.975494383999944, 1.99127805300003 ], [ -63.967716216999861, 1.988208056000076 ] ], [ [ -63.967716216999861, 1.988208056000076 ], [ -63.961326597999914, 1.992372036000177 ] ], [ [ -63.961326597999914, 1.992372036000177 ], [ -63.954109191999862, 1.988214017000132 ] ], [ [ -63.954109191999862, 1.988214017000132 ], [ -63.953839265173556, 1.988233046776371 ] ], [ [ -63.938848965254799, 1.989289837052704 ], [ -63.938549040999987, 1.989310981000131 ] ], [ [ -63.938549040999987, 1.989310981000131 ], [ -63.938512129541238, 1.989296021030001 ] ], [ [ -63.922834524042692, 1.982941745206794 ], [ -63.922714233999955, 1.982892990000153 ] ], [ [ -63.922714233999955, 1.982892990000153 ], [ -63.922413471985941, 1.983053726404317 ] ], [ [ -63.906898589989005, 1.991343986403026 ], [ -63.906898586999944, 1.99134398800004 ] ], [ [ -63.906898586999944, 1.99134398800004 ], [ -63.906604765999873, 1.991500973000143 ] ], [ [ -63.906604765999873, 1.991500973000143 ], [ -63.898548125999923, 1.992409946000123 ] ], [ [ -63.898548125999923, 1.992409946000123 ], [ -63.890795091175839, 1.989344443069586 ] ], [ [ -63.887731297131985, 1.982400570298465 ], [ -63.887731296999959, 1.982400570000095 ] ], [ [ -63.887731296999959, 1.982400570000095 ], [ -63.887718200999927, 1.982370973000059 ] ], [ [ -63.887718200999927, 1.982370973000059 ], [ -63.883449787999893, 1.981879559000049 ] ], [ [ -63.883449787999893, 1.981879559000049 ], [ -63.883449748212477, 1.981879554419407 ] ], [ [ -63.86364760448614, 1.979600430825724 ], [ -63.854118591249559, 1.978502748028903 ] ], [ [ -63.854037762325596, 1.978383634177215 ], [ -63.854037759999869, 1.97838363000011 ] ], [ [ -63.854037759999869, 1.97838363000011 ], [ -63.846139484999981, 1.964198077999981 ] ], [ [ -63.846139484999981, 1.964198077999981 ], [ -63.846139483910889, 1.96419807604394 ] ], [ [ -63.84606295978201, 1.964060636608717 ], [ -63.846046447999981, 1.964030981000121 ] ], [ [ -63.846046447999981, 1.964030981000121 ], [ -63.84580621007639, 1.964092112217215 ] ], [ [ -63.829909907648677, 1.968137070343975 ], [ -63.829658507999966, 1.968201040999986 ] ], [ [ -63.829658507999966, 1.968201040999986 ], [ -63.829529521999916, 1.968705294000074 ] ], [ [ -63.829529521999916, 1.968705294000074 ], [ -63.829529520529483, 1.968705299748554 ] ], [ [ -63.82388572518677, 1.990762928270046 ], [ -63.823885724999968, 1.990762929000027 ] ], [ [ -63.823885724999968, 1.990762929000027 ], [ -63.823825836999902, 1.990996957 ] ], [ [ -63.823825836999902, 1.990996957 ], [ -63.810199363999971, 1.988940514000149 ] ], [ [ -63.810199363999971, 1.988940514000149 ], [ -63.81019936345033, 1.9889405139172 ] ], [ [ -63.80042399193222, 1.987465260498968 ], [ -63.800423981999927, 1.987465259000032 ] ], [ [ -63.800423981999927, 1.987465259000032 ], [ -63.799938202999897, 1.987391948000095 ] ], [ [ -63.799938202999897, 1.987391948000095 ], [ -63.79989948892355, 1.987376791361763 ] ], [ [ -63.785059532088539, 1.981566787251679 ], [ -63.784934996999937, 1.981518030000075 ] ], [ [ -63.784934996999937, 1.981518030000075 ], [ -63.777431487999934, 1.985141993000184 ] ], [ [ -63.777431487999934, 1.985141993000184 ], [ -63.76881790199991, 1.999619006000103 ] ], [ [ -63.76881790199991, 1.999619006000103 ], [ -63.766963957999963, 2.000574113000027 ] ], [ [ -63.766963957999963, 2.000574113000027 ], [ -63.760211368999933, 2.004057407000062 ] ], [ [ -63.760211368999933, 2.004057407000062 ], [ -63.760211248446133, 2.004057290560952 ] ], [ [ -63.751910491592156, 1.996039851469651 ], [ -63.751910487999965, 1.996039848000066 ] ], [ [ -63.751910487999965, 1.996039848000066 ], [ -63.751880645999961, 1.996011019000093 ] ], [ [ -63.751880645999961, 1.996011019000093 ], [ -63.740486144999977, 1.999634982000032 ] ], [ [ -63.740486144999977, 1.999634982000032 ], [ -63.742713928999933, 2.008498907000046 ] ], [ [ -63.742713928999933, 2.008498907000046 ], [ -63.739101409999876, 2.016279937000093 ] ], [ [ -63.739101409999876, 2.016279937000093 ], [ -63.73104095399998, 2.017909051000061 ] ], [ [ -63.73104095399998, 2.017909051000061 ], [ -63.728267668999933, 2.02623510300009 ] ], [ [ -63.728267668999933, 2.02623510300009 ], [ -63.703266142999951, 2.046238898000126 ] ], [ [ -63.703266142999951, 2.046238898000126 ], [ -63.69384783199996, 2.041009806000147 ] ], [ [ -63.69384783199996, 2.041009806000147 ], [ -63.693847831798195, 2.04100980588813 ] ], [ [ -63.692147413143466, 2.023199736669882 ], [ -63.692157744999918, 2.023175955000113 ] ], [ [ -63.692157744999918, 2.023175955000113 ], [ -63.67493438799994, 2.021281959000078 ] ], [ [ -63.67493438799994, 2.021281959000078 ], [ -63.667984008999952, 2.016854049000187 ] ], [ [ -63.667984008999952, 2.016854049000187 ], [ -63.662155150999979, 2.023461103000102 ] ], [ [ -63.662155150999979, 2.023461103000102 ], [ -63.660766600999921, 2.033230066000044 ] ], [ [ -63.660766600999921, 2.033230066000044 ], [ -63.661003876288191, 2.034607133262107 ] ], [ [ -63.664793283526961, 2.0565996330588 ], [ -63.664928435999911, 2.057384015000082 ] ], [ [ -63.664928435999911, 2.057384015000082 ], [ -63.662158965999936, 2.065435888000025 ] ], [ [ -63.662158965999936, 2.065435888000025 ], [ -63.653820037999822, 2.067972899000097 ] ], [ [ -63.653820037999822, 2.067972899000097 ], [ -63.644931793999888, 2.064899922000109 ] ], [ [ -63.644931793999888, 2.064899922000109 ], [ -63.638019562999943, 2.069245101000035 ] ], [ [ -63.638019562999943, 2.069245101000035 ], [ -63.637868002999937, 2.069554576000144 ] ], [ [ -63.630662512747946, 2.084267684556372 ], [ -63.630485534999934, 2.084629060000054 ] ], [ [ -63.630485534999934, 2.084629060000054 ], [ -63.622711180999886, 2.089066028000161 ] ], [ [ -63.622711180999886, 2.089066028000161 ], [ -63.61854171799996, 2.096304894000127 ] ], [ [ -63.61854171799996, 2.096304894000127 ], [ -63.617424010999855, 2.106527091000089 ] ], [ [ -63.617424010999855, 2.106527091000089 ], [ -63.606597900999986, 2.107347012000162 ] ], [ [ -63.606597900999986, 2.107347012000162 ], [ -63.600303649999944, 2.113960982000094 ] ], [ [ -63.600303649999944, 2.113960982000094 ], [ -63.594371794999972, 2.120197059000134 ] ], [ [ -63.594371794999972, 2.120197059000134 ], [ -63.587329864999958, 2.119694948000074 ] ], [ [ -63.587329864999958, 2.119694948000074 ], [ -63.585487365999825, 2.11956596400006 ] ], [ [ -63.585487365999825, 2.11956596400006 ], [ -63.568817137999929, 2.12463903400004 ] ], [ [ -63.568817137999929, 2.12463903400004 ], [ -63.565692900999977, 2.128098964000174 ] ], [ [ -63.565692900999977, 2.128098964000174 ], [ -63.561870574999944, 2.13233304 ] ], [ [ -63.561870574999944, 2.13233304 ], [ -63.561700459999884, 2.132324057000062 ] ], [ [ -63.561700459999884, 2.132324057000062 ], [ -63.561700456923191, 2.132324056837602 ] ], [ [ -63.536571464419893, 2.130997159969533 ], [ -63.536323547999928, 2.130984069000021 ] ], [ [ -63.536323547999928, 2.130984069000021 ], [ -63.527816771999881, 2.127094030000137 ] ], [ [ -63.527816771999881, 2.127094030000137 ], [ -63.519989013999975, 2.123514892000117 ] ], [ [ -63.519989013999975, 2.123514892000117 ], [ -63.514395943999943, 2.120958757000096 ] ], [ [ -63.514395943999943, 2.120958757000096 ], [ -63.514395943534936, 2.120958756787587 ] ], [ [ -63.509393691233321, 2.113564172346787 ], [ -63.5093936909999, 2.113564172000167 ] ], [ [ -63.5093936909999, 2.113564172000167 ], [ -63.509372711999958, 2.113533019000158 ] ], [ [ -63.509372711999958, 2.113533019000158 ], [ -63.492427825999926, 2.115437986000131 ] ], [ [ -63.492427825999926, 2.115437986000131 ], [ -63.492145537999932, 2.11562299700006 ] ], [ [ -63.492145537999932, 2.11562299700006 ], [ -63.475479125999925, 2.126569033000123 ] ], [ [ -63.475479125999925, 2.126569033000123 ], [ -63.474346160999971, 2.137881040000025 ] ], [ [ -63.474346160999971, 2.137881040000025 ], [ -63.46693038899997, 2.140825033000169 ] ], [ [ -63.46693038899997, 2.140825033000169 ], [ -63.46659552899996, 2.140957741000136 ] ], [ [ -63.46659552899996, 2.140957741000136 ], [ -63.466505321999932, 2.140895198000067 ] ], [ [ -63.466505321999932, 2.140895198000067 ], [ -63.459930690439222, 2.136269934309174 ] ], [ [ -63.444152148583491, 2.125168011819142 ], [ -63.444152145999965, 2.125168010000152 ] ], [ [ -63.444152145999965, 2.125168010000152 ], [ -63.44409942599998, 2.125130892000072 ] ], [ [ -63.44409942599998, 2.125130892000072 ], [ -63.434089659999984, 2.126312018000078 ] ], [ [ -63.434089659999984, 2.126312018000078 ], [ -63.431102751999958, 2.130461932000117 ] ], [ [ -63.431102751999958, 2.130461932000117 ], [ -63.427707672999986, 2.135179996000033 ] ], [ [ -63.427707672999986, 2.135179996000033 ], [ -63.423004149999883, 2.132431030000134 ] ], [ [ -63.423004149999883, 2.132431030000134 ], [ -63.422990796999954, 2.132432826000127 ] ], [ [ -63.419401044656894, 2.132915625046307 ], [ -63.419086455999945, 2.132957935000093 ] ], [ [ -63.419086455999945, 2.132957935000093 ], [ -63.405757903999984, 2.144321919000163 ] ], [ [ -63.405757903999984, 2.144321919000163 ], [ -63.397701263999863, 2.146856070000126 ] ], [ [ -63.397701263999863, 2.146856070000126 ], [ -63.393814086999953, 2.156809092000117 ] ], [ [ -63.393814086999953, 2.156809092000117 ], [ -63.394363402999886, 2.165672065000081 ] ], [ [ -63.394363402999886, 2.165672065000081 ], [ -63.394277202429294, 2.165940742661987 ] ], [ [ -63.388925063524965, 2.182622694480703 ], [ -63.388816832999908, 2.182960035000178 ] ], [ [ -63.388816832999908, 2.182960035000178 ], [ -63.395198821999941, 2.188474893000148 ] ], [ [ -63.395198821999941, 2.188474893000148 ], [ -63.395206451999854, 2.199604035000107 ] ], [ [ -63.395206451999854, 2.199604035000107 ], [ -63.395031548999953, 2.199696355000071 ] ], [ [ -63.395031548999953, 2.199696355000071 ], [ -63.395031548301063, 2.19969635536897 ] ], [ [ -63.37251525322327, 2.211582852882126 ], [ -63.37251525299996, 2.211582853000039 ] ], [ [ -63.37251525299996, 2.211582853000039 ], [ -63.372276305999947, 2.211709022000093 ] ], [ [ -63.372276305999947, 2.211709022000093 ], [ -63.372292840999876, 2.211728360000052 ] ] ] } },
{ "type": "Feature", "properties": { "GID_2": "BRA.4.52_2", "NAME_2": "São Gabriel da Cachoeira", "ENGTYPE_2": "Municipality", "CC_2": "1303809", "region_ID": 2002192, "Rank_Category": 5, "UF": "AM" }, "geometry": { "type": "MultiLineString", "coordinates": [ [ [ -66.856750487999818, 1.229928494000148 ], [ -66.855026244999976, 1.22838902500007 ] ], [ [ -66.855026244999976, 1.22838902500007 ], [ -66.854902216031888, 1.22838902500007 ] ], [ [ -66.832290648999958, 1.208040953000079 ], [ -66.83217620899984, 1.207939029000158 ] ], [ [ -66.83217620899984, 1.207939029000158 ], [ -66.599395750999975, 0.999660016000178 ] ] ] } },
{ "type": "Feature", "properties": { "GID_2": "BRA.23.8_2", "NAME_2": "Iracema", "ENGTYPE_2": "Municipality", "CC_2": "1400282", "region_ID": 2006411, "Rank_Category": 2, "UF": "AM" }, "geometry": { "type": "MultiLineString", "coordinates": [ [ [ -63.372292840999876, 2.211728360000052 ], [ -63.372292841202871, 2.211728360237457 ] ], [ [ -63.37422441494418, 2.213987333597595 ], [ -63.374957642999902, 2.214844843000094 ] ], [ [ -63.374957642999902, 2.214844843000094 ], [ -63.376081496999916, 2.216159191000145 ] ], [ [ -63.376081496999916, 2.216159191000145 ], [ -63.378925323999908, 2.219485044000066 ] ], [ [ -63.378925323999908, 2.219485044000066 ], [ -63.401199340999938, 2.245552063000105 ] ], [ [ -63.401199340999938, 2.245552063000105 ], [ -63.40267562799994, 2.253026963000025 ] ], [ [ -63.40267562799994, 2.253026963000025 ], [ -63.401234855973286, 2.259299903412061 ] ], [ [ -63.397873138364382, 2.27393639957702 ], [ -63.397800445999962, 2.274252892999982 ] ], [ [ -63.397800445999962, 2.274252892999982 ], [ -63.401412962999927, 2.296643018999987 ] ], [ [ -63.401412962999927, 2.296643018999987 ], [ -63.401501305290232, 2.296890735572908 ] ], [ [ -63.416573771005545, 2.339154746836941 ], [ -63.41868972799989, 2.345088005000036 ] ], [ [ -63.41868972799989, 2.345088005000036 ], [ -63.425518034999982, 2.364233017000117 ] ], [ [ -63.425518034999982, 2.364233017000117 ], [ -63.422290801999964, 2.378515959000083 ] ], [ [ -63.422290801999964, 2.378515959000083 ], [ -63.421765120842949, 2.379062181993522 ] ], [ [ -63.394984247613067, 2.406889560904257 ], [ -63.394828796999946, 2.407051086000024 ] ], [ [ -63.394828796999946, 2.407051086000024 ], [ -63.394838417009119, 2.407223140233235 ] ], [ [ -63.395884778256644, 2.425950288013891 ], [ -63.395893096999885, 2.426109076000046 ] ], [ [ -63.395893096999885, 2.426109076000046 ], [ -63.395954297191281, 2.426164035330046 ] ], [ [ -63.406791529518806, 2.43589614360905 ], [ -63.406806945999904, 2.435909988000049 ] ], [ [ -63.406806945999904, 2.435909988000049 ], [ -63.406809414210031, 2.435910396941529 ] ], [ [ -63.531174422308872, 2.428708100512629 ], [ -63.540597208999941, 2.426521650000041 ] ], [ [ -63.540597208999941, 2.426521650000041 ], [ -63.543596915445484, 2.425825602004054 ] ], [ [ -63.689925455049774, 2.387921937972679 ], [ -63.725354081481022, 2.38635088981859 ] ], [ [ -63.728320979674535, 2.386278173836597 ], [ -63.780601104904832, 2.391227366341872 ] ], [ [ -63.788027143808648, 2.393525688082088 ], [ -63.794591495064573, 2.395599938716067 ] ], [ [ -63.794591495064573, 2.395599938716067 ], [ -63.800427589734504, 2.397444069628189 ] ], [ [ -63.834215073327314, 2.408155112701758 ], [ -63.842006623371653, 2.411939914878728 ] ], [ [ -63.842006623371653, 2.411939914878728 ], [ -63.857149381889364, 2.419295620107734 ] ], [ [ -63.894281832568218, 2.431921822518546 ], [ -63.902600603151093, 2.434746259048333 ] ], [ [ -63.96124607533244, 2.454680428930464 ], [ -63.975394315999836, 2.465497842000161 ] ] ] } },
{ "type": "Feature", "properties": { "GID_2": "BRA.23.1_2", "NAME_2": "Alto Alegre", "ENGTYPE_2": "Municipality", "CC_2": "1400050", "region_ID": 2006404, "Rank_Category": 2, "UF": "AM" }, "geometry": { "type": "MultiLineString", "coordinates": [ [ [ -63.975394315999836, 2.465497842000161 ], [ -63.978023529999859, 2.467508078000037 ] ], [ [ -63.978023529999859, 2.467508078000037 ], [ -63.978029233772595, 2.467506641715241 ] ], [ [ -63.988310605004855, 2.464956747554174 ], [ -63.995452515717631, 2.4726688502843 ] ], [ [ -64.005846098669352, 2.477668339540369 ], [ -64.009717621089152, 2.473020339160418 ] ], [ [ -64.009717621089152, 2.473020339160418 ], [ -64.012254924104553, 2.469974151097733 ] ], [ [ -64.015293320729043, 2.468633031137056 ], [ -64.018495646999838, 2.467408520000163 ] ], [ [ -64.018495646999838, 2.467408520000163 ], [ -64.020569306934888, 2.466615590458465 ] ], [ [ -64.020798053529461, 2.466566458729783 ], [ -64.021758354339596, 2.467785247164525 ] ], [ [ -64.021758354339596, 2.467785247164525 ], [ -64.023522263149317, 2.470023953655801 ] ], [ [ -64.024890859156812, 2.471760939575394 ], [ -64.024940490999825, 2.471823931000188 ] ], [ [ -64.024940490999825, 2.471823931000188 ], [ -64.02494317860419, 2.471824065977354 ] ], [ [ -64.032022551922665, 2.472210135290017 ], [ -64.031992263390791, 2.472372386952282 ] ], [ [ -64.031992263390791, 2.472372386952282 ], [ -64.031977549042807, 2.472451209769735 ] ], [ [ -64.031354138174876, 2.475790735468972 ], [ -64.030707668448585, 2.479253782146072 ] ], [ [ -64.030304608629308, 2.481412916458296 ], [ -64.030227660999969, 2.481825114000173 ] ], [ [ -64.030227660999969, 2.481825114000173 ], [ -64.030252424167927, 2.481841020474917 ] ], [ [ -64.035884552315991, 2.485458784027308 ], [ -64.037580518189444, 2.486548178018433 ] ], [ [ -64.037580518189444, 2.486548178018433 ], [ -64.037953894696059, 2.486788014284655 ] ], [ [ -64.037995370652041, 2.486822514461928 ], [ -64.038833616999966, 2.494044065000139 ] ], [ [ -64.038833616999966, 2.494044065000139 ], [ -64.038856966343147, 2.49404895606312 ] ], [ [ -64.046048218901106, 2.495555331733797 ], [ -64.0492894332871, 2.496234280023211 ] ], [ [ -64.056070094833942, 2.497679910652124 ], [ -64.058830261999901, 2.502376080000033 ] ], [ [ -64.058830261999901, 2.502376080000033 ], [ -64.057522781999978, 2.510671155000068 ] ], [ [ -64.057522781999978, 2.510671155000068 ], [ -64.057167053999933, 2.51292800900012 ] ], [ [ -64.057167053999933, 2.51292800900012 ], [ -64.050734120929349, 2.523626272408476 ] ], [ [ -64.045417086376801, 2.532468746191248 ], [ -64.045379638999975, 2.532531023000104 ] ], [ [ -64.045379638999975, 2.532531023000104 ], [ -64.045403817235069, 2.532641892940548 ] ], [ [ -64.048884633793705, 2.54860327936216 ], [ -64.048889160999977, 2.54862403900006 ] ], [ [ -64.048889160999977, 2.54862403900006 ], [ -64.048794648666998, 2.548836856722791 ] ], [ [ -64.04453925305306, 2.558418933350678 ], [ -64.044387817999961, 2.558759927000096 ] ], [ [ -64.044387817999961, 2.558759927000096 ], [ -64.044387817999961, 2.573206902000038 ] ], [ [ -64.044387817999961, 2.573206902000038 ], [ -64.039108274999933, 2.578483104000156 ] ], [ [ -64.039108274999933, 2.578483104000156 ], [ -64.033668517999899, 2.574850083000058 ] ], [ [ -64.033668517999899, 2.574850083000058 ], [ -64.029113768999878, 2.575988054000163 ] ], [ [ -64.029113768999878, 2.575988054000163 ], [ -64.02907745562274, 2.576101225349656 ] ], [ [ -64.024477385309424, 2.590437431557831 ], [ -64.02441399199995, 2.590634998000041 ] ], [ [ -64.02441399199995, 2.590634998000041 ], [ -64.024391174999948, 2.590706109000109 ] ], [ [ -64.024391174999948, 2.590706109000109 ], [ -64.024329403588325, 2.590776799157774 ] ], [ [ -64.009224962775178, 2.608062065330703 ], [ -64.009101866999913, 2.60820293400019 ] ], [ [ -64.009101866999913, 2.60820293400019 ], [ -64.00911126651927, 2.608336743490643 ] ], [ [ -64.009482479084909, 2.613621243940536 ], [ -64.009855967999954, 2.618938150000076 ] ], [ [ -64.009855967999954, 2.618938150000076 ], [ -64.009941100999981, 2.620150089000049 ] ], [ [ -64.009941100999981, 2.620150089000049 ], [ -64.006617975999916, 2.62307006400016 ] ], [ [ -64.006617975999916, 2.62307006400016 ], [ -63.991622924999945, 2.636245966000047 ] ], [ [ -63.991622924999945, 2.636245966000047 ], [ -63.991319755440664, 2.636801019753241 ] ], [ [ -63.985017991581884, 2.648338516096285 ], [ -63.984939574999942, 2.648482084000079 ] ], [ [ -63.984939574999942, 2.648482084000079 ], [ -63.984386443999881, 2.659598112000026 ] ], [ [ -63.984386443999881, 2.659598112000026 ], [ -63.984423199092284, 2.659653018922857 ] ], [ [ -63.991411319218244, 2.670092284358051 ], [ -63.991413114999887, 2.670094967000182 ] ], [ [ -63.991413114999887, 2.670094967000182 ], [ -63.990890713999988, 2.670614317000172 ] ], [ [ -63.990890713999988, 2.670614317000172 ], [ -63.987167358999955, 2.674315929000045 ] ], [ [ -63.987167358999955, 2.674315929000045 ], [ -63.985496520999902, 2.685985089000098 ] ], [ [ -63.985496520999902, 2.685985089000098 ], [ -63.985527720518014, 2.686011094668658 ] ], [ [ -64.001827428163736, 2.699611363989078 ], [ -64.00202715599994, 2.700476649000052 ] ], [ [ -64.00202715599994, 2.700476649000052 ], [ -64.003555296999934, 2.707097053000041 ] ], [ [ -64.003555296999934, 2.707097053000041 ], [ -63.999707509999951, 2.709712363000051 ] ], [ [ -63.999707509999951, 2.709712363000051 ], [ -63.997500036809953, 2.711212764302694 ] ], [ [ -63.989842860380691, 2.71641728472072 ], [ -63.989662170999964, 2.716540098 ] ], [ [ -63.989662170999964, 2.716540098 ], [ -63.989541842349524, 2.716554465536616 ] ], [ [ -63.982787347858512, 2.71736096837252 ], [ -63.982719420999899, 2.71736907900015 ] ], [ [ -63.982719420999899, 2.71736907900015 ], [ -63.982750059954419, 2.717474225634134 ] ], [ [ -63.984717025994222, 2.724224451335625 ], [ -63.985263829999951, 2.726100971000164 ] ], [ [ -63.985263829999951, 2.726100971000164 ], [ -63.986579850999931, 2.73061728800019 ] ], [ [ -63.986579850999931, 2.73061728800019 ], [ -63.986606597999923, 2.730709077000029 ] ], [ [ -63.986606597999923, 2.730709077000029 ], [ -63.986633519083178, 2.730728543267425 ] ], [ [ -63.992273653327558, 2.734806847943249 ], [ -63.994790260999878, 2.73662657300008 ] ], [ [ -63.994790260999878, 2.73662657300008 ], [ -63.999664306999932, 2.740150929000038 ] ], [ [ -63.999664306999932, 2.740150929000038 ], [ -63.999563516672964, 2.74374410485825 ] ], [ [ -63.999188131422365, 2.757126591656432 ], [ -63.999111175999985, 2.759870053000043 ] ], [ [ -63.999111175999985, 2.759870053000043 ], [ -63.995845440278231, 2.762941557068598 ] ], [ [ -63.995347248242751, 2.763410118824435 ], [ -63.994380951999972, 2.764318944000138 ] ], [ [ -63.994380951999972, 2.764318944000138 ], [ -63.994364248055035, 2.764485554353454 ] ], [ [ -63.993830391002213, 2.769810410997465 ], [ -63.993824005999954, 2.769874097000127 ] ], [ [ -63.993824005999954, 2.769874097000127 ], [ -63.993847843943769, 2.769880859173575 ] ], [ [ -64.007045843094602, 2.775667501144942 ], [ -64.009384154999907, 2.778208018000043 ] ], [ [ -64.009384154999907, 2.778208018000043 ], [ -64.009384154999907, 2.787096977000033 ] ], [ [ -64.009384154999907, 2.787096977000033 ], [ -64.014106750999986, 2.79542994500008 ] ], [ [ -64.014106750999986, 2.79542994500008 ], [ -64.014114604980492, 2.795578834463471 ] ], [ [ -64.014693960697457, 2.806590207267494 ], [ -64.014694213999974, 2.806595088000108 ] ], [ [ -64.014694213999974, 2.806595088000108 ], [ -64.014625972425208, 2.806670865064997 ] ], [ [ -64.010547888716275, 2.811199266041798 ], [ -64.010490416999971, 2.811263084000132 ] ], [ [ -64.010490416999971, 2.811263084000132 ], [ -64.010546259691253, 2.811419118393477 ] ], [ [ -64.013255062716311, 2.81898799494626 ], [ -64.013275146999888, 2.819044114000178 ] ], [ [ -64.013275146999888, 2.819044114000178 ], [ -64.01329307864728, 2.81905322477094 ] ], [ [ -64.027340333634214, 2.826190400582314 ], [ -64.033842834999916, 2.829494213000032 ] ], [ [ -64.033842834999916, 2.829494213000032 ], [ -64.03688647599995, 2.831040636000182 ] ], [ [ -64.03688647599995, 2.831040636000182 ], [ -64.041664222999941, 2.833468130000085 ] ], [ [ -64.041664222999941, 2.833468130000085 ], [ -64.04710606316641, 2.836233037844958 ] ], [ [ -64.047181713536403, 2.83628546752709 ], [ -64.057724, 2.850425004000158 ] ], [ [ -64.057724, 2.850425004000158 ], [ -64.062584799999968, 2.86589819 ] ], [ [ -64.062584799999968, 2.86589819 ], [ -64.066886901999908, 2.879592895999963 ] ], [ [ -64.066886901999908, 2.879592895999963 ], [ -64.069967212777499, 2.917518597970778 ] ], [ [ -64.071595261157242, 2.937563613588557 ], [ -64.071601867999959, 2.937644959000068 ] ], [ [ -64.071601867999959, 2.937644959000068 ], [ -64.071625862872921, 2.93765576990137 ] ], [ [ -64.086121949092444, 2.944186988368382 ], [ -64.099861509999869, 2.950377354000068 ] ], [ [ -64.099861509999869, 2.950377354000068 ], [ -64.102277890511289, 2.951466055548252 ] ], [ [ -64.111338188301588, 2.960439686641047 ], [ -64.124946594999983, 2.980432034000103 ] ], [ [ -64.124946594999983, 2.980432034000103 ], [ -64.1250227334112, 2.980759426633794 ] ], [ [ -64.130397889873962, 3.003872419997489 ], [ -64.130500792999953, 3.004314900000168 ] ], [ [ -64.130500792999953, 3.004314900000168 ], [ -64.130526651943725, 3.004339104064864 ] ], [ [ -64.155560216040641, 3.027770610896428 ], [ -64.16070937108806, 3.032590238884942 ] ], [ [ -64.160779724942685, 3.032660689833782 ], [ -64.1619148729812, 3.034673529051646 ] ], [ [ -64.1619148729812, 3.034673529051646 ], [ -64.163034747358594, 3.036659285084716 ] ], [ [ -64.181943429359194, 3.066212609707717 ], [ -64.194210124999927, 3.075593118000029 ] ], [ [ -64.194210124999927, 3.075593118000029 ], [ -64.202340505999928, 3.081810530000041 ] ], [ [ -64.202340505999928, 3.081810530000041 ], [ -64.205204388607569, 3.084000579629057 ] ], [ [ -64.220529302711171, 3.09573201205843 ], [ -64.235229492999963, 3.114319085000147 ] ], [ [ -64.235229492999963, 3.114319085000147 ], [ -64.233558654999911, 3.129868031000058 ] ], [ [ -64.233558654999911, 3.129868031000058 ], [ -64.233368826459497, 3.130167250245385 ] ], [ [ -64.223642127907382, 3.145499061753012 ], [ -64.222463033999986, 3.14735762100014 ] ], [ [ -64.222463033999986, 3.14735762100014 ], [ -64.220030393999878, 3.151192095000113 ] ], [ [ -64.220030393999878, 3.151192095000113 ], [ -64.219108581999819, 3.152645111000083 ] ], [ [ -64.219108581999819, 3.152645111000083 ], [ -64.218308793073973, 3.154513407926393 ] ], [ [ -64.211076210101339, 3.17140863127899 ], [ -64.210784911999895, 3.172089100000164 ] ], [ [ -64.210784911999895, 3.172089100000164 ], [ -64.208282469999972, 3.188760996000042 ] ], [ [ -64.208282469999972, 3.188760996000042 ], [ -64.208316925259282, 3.188974655263971 ] ], [ [ -64.209994277900691, 3.199376026142015 ], [ -64.213836669999978, 3.223202945000082 ] ], [ [ -64.213836669999978, 3.223202945000082 ], [ -64.213836669999978, 3.22366595570012 ] ], [ [ -64.213836669999978, 3.246138748537773 ], [ -64.213836669999978, 3.246260883000105 ] ], [ [ -64.213836669999978, 3.246260883000105 ], [ -64.214060787966858, 3.24681990082027 ] ], [ [ -64.214978264708918, 3.249108364594632 ], [ -64.220489501999964, 3.26285505300018 ] ], [ [ -64.220489501999964, 3.26285505300018 ], [ -64.241340636999951, 3.314851047000161 ] ], [ [ -64.241340636999951, 3.314851047000161 ], [ -64.23572968801669, 3.370702434299637 ] ], [ [ -64.234396148663208, 3.38397648529038 ], [ -64.234390258999895, 3.384035111000173 ] ], [ [ -64.234390258999895, 3.384035111000173 ], [ -64.234412209204834, 3.384057465306428 ] ], [ [ -64.249128468385976, 3.399057267269142 ], [ -64.255226134999987, 3.410975934000021 ] ], [ [ -64.255226134999987, 3.410975934000021 ], [ -64.251899718999937, 3.427922010000088 ] ], [ [ -64.251899718999937, 3.427922010000088 ], [ -64.239944458999901, 3.442924976000086 ] ], [ [ -64.239944458999901, 3.442924976000086 ], [ -64.202720641999917, 3.477088929000047 ] ], [ [ -64.202720641999917, 3.477088929000047 ], [ -64.202446460760001, 3.477470404116537 ] ], [ [ -64.190153502229208, 3.494573900289127 ], [ -64.190101059516039, 3.494646865128438 ] ], [ [ -64.190101059516039, 3.494646865128438 ], [ -64.189945520686678, 3.494863270135098 ] ], [ [ -64.184483059086119, 3.489398447317181 ], [ -64.184400190999952, 3.48931539400013 ] ] ] } },
{ "type": "Feature", "properties": { "GID_2": "BRA.23.2_2", "NAME_2": "Amajari", "ENGTYPE_2": "Municipality", "CC_2": "1400027", "region_ID": 2006405, "Rank_Category": 11, "UF": "AM" }, "geometry": { "type": "MultiLineString", "coordinates": [ [ [ -64.184400190999952, 3.48931539400013 ], [ -64.186889647999976, 3.499587059000078 ] ], [ [ -64.186889647999976, 3.499587059000078 ], [ -64.18686825585533, 3.499855777782034 ] ], [ [ -64.185500562931608, 3.517036138834334 ], [ -64.18383788999995, 3.537921905000076 ] ], [ [ -64.18383788999995, 3.537921905000076 ], [ -64.183860998714664, 3.538180257243727 ] ], [ [ -64.185767845998697, 3.559498546916775 ], [ -64.185775757999977, 3.559587002000058 ] ], [ [ -64.185775757999977, 3.559587002000058 ], [ -64.185819082597632, 3.559652847882357 ] ], [ [ -64.227433953409658, 3.609624521787202 ], [ -64.227433966999968, 3.609624534000034 ] ], [ [ -64.227433966999968, 3.609624534000034 ], [ -64.244290506443477, 3.624772539601425 ] ], [ [ -64.244407260492878, 3.624889496133923 ], [ -64.244407260999935, 3.62488949700014 ] ], [ [ -64.244407260999935, 3.62488949700014 ], [ -64.250570228999891, 3.635417533000123 ] ], [ [ -64.250570228999891, 3.635417533000123 ], [ -64.250570229156608, 3.63541753326783 ] ], [ [ -64.25768537234886, 3.647572145888016 ], [ -64.257685372999902, 3.647572147000176 ] ], [ [ -64.257685372999902, 3.647572147000176 ], [ -64.257728576999853, 3.647645951000072 ] ], [ [ -64.257728576999853, 3.647645951000072 ], [ -64.257738334999942, 3.647653306000052 ] ], [ [ -64.257738334999942, 3.647653306000052 ], [ -64.25773833570176, 3.647653306529017 ] ], [ [ -64.265527441297948, 3.653524031978374 ], [ -64.270537157885315, 3.657299905030222 ] ], [ [ -64.270537157885315, 3.657299905030222 ], [ -64.27557376765985, 3.661096047743817 ] ], [ [ -64.275835881463678, 3.661331193237242 ], [ -64.281059264999953, 3.669313907 ] ], [ [ -64.281059264999953, 3.669313907 ], [ -64.281123434999927, 3.669554825000034 ] ], [ [ -64.281123434999927, 3.669554825000034 ], [ -64.281123436471063, 3.669554830523169 ] ], [ [ -64.28358076955503, 3.678780505084006 ], [ -64.286779624999951, 3.690790117000063 ] ], [ [ -64.286779624999951, 3.690790117000063 ], [ -64.286779625196473, 3.690790117737866 ] ], [ [ -64.289790732713925, 3.699947492990339 ], [ -64.303933874311625, 3.707526257487809 ] ], [ [ -64.328061231436223, 3.720481118408712 ], [ -64.332024502999957, 3.724368283000103 ] ], [ [ -64.332024502999957, 3.724368283000103 ], [ -64.332024503611464, 3.724368283599864 ] ], [ [ -64.34290818603526, 3.734960391495274 ], [ -64.342908186999921, 3.734960392000175 ] ], [ [ -64.342908186999921, 3.734960392000175 ], [ -64.362377438999943, 3.74515059100014 ] ], [ [ -64.366710790594112, 3.747418665311032 ], [ -64.371854607003243, 3.750110936834729 ] ], [ [ -64.371854607003243, 3.750110936834729 ], [ -64.373641350600664, 3.751046117744165 ] ], [ [ -64.402730981868288, 3.763663507596702 ], [ -64.407508573215352, 3.765188896833877 ] ], [ [ -64.409340074255368, 3.765864240729345 ], [ -64.409340075999978, 3.765864242000077 ] ], [ [ -64.409340075999978, 3.765864242000077 ], [ -64.422381571524937, 3.775363325654003 ] ], [ [ -64.448080690931405, 3.78397646380459 ], [ -64.466126600616022, 3.782168329376954 ] ], [ [ -64.466126600616022, 3.782168329376954 ], [ -64.472277803677244, 3.781552001232751 ] ], [ [ -64.472594067132817, 3.781594798612784 ], [ -64.472594067999921, 3.781594799000175 ] ], [ [ -64.472594067999921, 3.781594799000175 ], [ -64.485284103725022, 3.787264196303113 ] ], [ [ -64.485586103110506, 3.787449519874655 ], [ -64.485586104999925, 3.787449522000088 ] ], [ [ -64.485586104999925, 3.787449522000088 ], [ -64.490118854999821, 3.792548433000036 ] ], [ [ -64.490118854999821, 3.792548433000036 ], [ -64.490118855906672, 3.792548434020154 ] ], [ [ -64.498289012694102, 3.801739079280577 ], [ -64.500590980472353, 3.804328573598859 ] ], [ [ -64.500590980472353, 3.804328573598859 ], [ -64.505301945204977, 3.809627959856134 ] ], [ [ -64.505556406703903, 3.809949867122497 ], [ -64.505556408999951, 3.809949871000072 ] ], [ [ -64.505556408999951, 3.809949871000072 ], [ -64.521442954368851, 3.836778986867836 ] ], [ [ -64.544609239926345, 3.857257117234262 ], [ -64.552591949999851, 3.863351586000135 ] ], [ [ -64.552591949999851, 3.863351586000135 ], [ -64.552591955539242, 3.863351590229224 ] ], [ [ -64.553073770457118, 3.863764963011196 ], [ -64.553073772999937, 3.863764966000076 ] ], [ [ -64.553073772999937, 3.863764966000076 ], [ -64.567904558999942, 3.881197299000121 ] ], [ [ -64.567904558999942, 3.881197299000121 ], [ -64.567904562540065, 3.881197303161234 ] ], [ [ -64.596469848062299, 3.938074900664768 ], [ -64.59678022012433, 3.938262520775068 ] ], [ [ -64.59678022012433, 3.938262520775068 ], [ -64.597244353479368, 3.938543089685484 ] ], [ [ -64.607077657852315, 3.944080705042152 ], [ -64.619792248637268, 3.951233472670852 ] ], [ [ -64.619882257470991, 3.951319830789288 ], [ -64.63399168299992, 3.97495900500013 ] ], [ [ -64.63399168299992, 3.97495900500013 ], [ -64.633991684686052, 3.974959007825046 ] ], [ [ -64.673864129641615, 4.004620271434383 ], [ -64.675223480999875, 4.012346745000059 ] ], [ [ -64.675223480999875, 4.012346745000059 ], [ -64.675223481102805, 4.01234674507218 ] ], [ [ -64.691279108975081, 4.048069525107844 ], [ -64.69571380807956, 4.052802009620689 ] ], [ [ -64.69571380807956, 4.052802009620689 ], [ -64.708464554735656, 4.066408955583788 ] ], [ [ -64.708589687699273, 4.066569912202668 ], [ -64.708589687999961, 4.066569913000137 ] ], [ [ -64.708589687999961, 4.066569913000137 ], [ -64.714299973999914, 4.081714600000055 ] ], [ [ -64.714299973999914, 4.081714600000055 ], [ -64.714299975786275, 4.081714604737803 ] ], [ [ -64.783945661740447, 4.152934895232118 ], [ -64.810449120476207, 4.174521029944577 ] ], [ [ -64.810561145958062, 4.174703460400024 ], [ -64.811300985899408, 4.177121598488649 ] ], [ [ -64.811300985899408, 4.177121598488649 ], [ -64.821902378894634, 4.2117718393874 ] ], [ [ -64.821917954160838, 4.211846576522383 ], [ -64.821917959916348, 4.21184663711979 ] ], [ [ -64.823860937787458, 4.232304836762885 ], [ -64.823860937999939, 4.232304839000165 ] ], [ [ -64.823860937999939, 4.232304839000165 ], [ -64.824974059999931, 4.244025230000091 ] ], [ [ -64.824974059999931, 4.244025230000091 ], [ -64.817749023999966, 4.265139104000014 ] ], [ [ -64.817749023999966, 4.265139104000014 ], [ -64.817622385999982, 4.265264064000064 ] ], [ [ -64.817622385999982, 4.265264064000064 ], [ -64.817622385856225, 4.265264064141917 ] ], [ [ -64.803496428603552, 4.279202842404469 ], [ -64.80349642799996, 4.279202843000064 ] ], [ [ -64.80349642799996, 4.279202843000064 ], [ -64.796913147999931, 4.285698890000106 ] ], [ [ -64.796913147999931, 4.285698890000106 ], [ -64.780525206999982, 4.286530972000037 ] ], [ [ -64.780525206999982, 4.286530972000037 ], [ -64.773321037999949, 4.283142132000137 ] ], [ [ -64.773321037999949, 4.283142132000137 ], [ -64.773320934293523, 4.283142083216658 ] ], [ [ -64.763877451144609, 4.27869987106824 ], [ -64.763877450999928, 4.278699871000185 ] ], [ [ -64.763877450999928, 4.278699871000185 ], [ -64.739721093978005, 4.267336725460163 ] ], [ [ -64.72087569108011, 4.258471850860245 ], [ -64.720875684999896, 4.258471848000113 ] ], [ [ -64.720875684999896, 4.258471848000113 ], [ -64.691360473999964, 4.24458789900001 ] ], [ [ -64.691360473999964, 4.24458789900001 ], [ -64.658576964999838, 4.211532117000047 ] ], [ [ -64.658576964999838, 4.211532117000047 ], [ -64.651069298999914, 4.193906248000133 ] ], [ [ -64.651069298999914, 4.193906248000133 ], [ -64.651069298229089, 4.193906246190443 ] ] ] } }
]
}
